start=new Date('2022-10-12T00:00:00.000Z').valueOf();
sats=[{"EPOCH":"2022-10-11T22:00:00.999936","RCS_SIZE":"LARGE","OBJECT_NAME":"STARLINK-4301","RA_OF_ASC_NODE":"282.1162","BSTAR":"0.00005493700000","PERIOD":"95.438","COUNTRY_CODE":"US","EPHEMERIS_TYPE":"0","TLE_LINE2":"2 52997  53.2174 282.1162 0002107  42.2833  56.1274 15.08836026  1308","INCLINATION":"53.2174","ARG_OF_PERICENTER":"42.2833","ELEMENT_SET_NO":"999","NORAD_CAT_ID":"52997","REF_FRAME":"TEME","CENTER_NAME":"EARTH","CLASSIFICATION_TYPE":"U","MEAN_ANOMALY":"56.1274","OBJECT_TYPE":"PAYLOAD","FILE":"3604484","LAUNCH_DATE":"2022-07-07","APOAPSIS":"541.215","PERIAPSIS":"538.300","MEAN_MOTION":"15.08836026","OBJECT_ID":"2022-076M","REV_AT_EPOCH":"130","ECCENTRICITY":"0.00021070","SITE":"AFETR","MEAN_MOTION_DDOT":"0.0000000000000","MEAN_ELEMENT_THEORY":"SGP4","SEMIMAJOR_AXIS":"6917.893","TLE_LINE1":"1 52997U 22076M   22284.91667824  .00000586  00000-0  54937-4 0  9991","GP_ID":"214825276","DECAY_DATE":null,"TIME_SYSTEM":"UTC","MEAN_MOTION_DOT":"0.00000586"},{"ELEMENT_SET_NO":"999","NORAD_CAT_ID":"52998","ARG_OF_PERICENTER":"56.3183","REF_FRAME":"TEME","CENTER_NAME":"EARTH","CLASSIFICATION_TYPE":"U","MEAN_ANOMALY":"356.8856","OBJECT_TYPE":"PAYLOAD","RCS_SIZE":"LARGE","EPOCH":"2022-10-11T22:00:00.999936","BSTAR":"0.00379290000000","PERIOD":"95.440","OBJECT_NAME":"STARLINK-4254","RA_OF_ASC_NODE":"282.1290","TLE_LINE2":"2 52998  53.2165 282.1290 0001424  56.3183 356.8856 15.08796856  1308","EPHEMERIS_TYPE":"0","INCLINATION":"53.2165","COUNTRY_CODE":"US","MEAN_MOTION_DDOT":"0.0000000000000","SEMIMAJOR_AXIS":"6918.012","MEAN_ELEMENT_THEORY":"SGP4","DECAY_DATE":null,"GP_ID":"214825884","TLE_LINE1":"1 52998U 22076N   22284.91667824  .00060523  00000-0  37929-2 0  9999","TIME_SYSTEM":"UTC","MEAN_MOTION_DOT":"0.00060523","LAUNCH_DATE":"2022-07-07","PERIAPSIS":"538.892","APOAPSIS":"540.862","FILE":"3604484","ECCENTRICITY":"0.00014240","SITE":"AFETR","OBJECT_ID":"2022-076N","MEAN_MOTION":"15.08796856","REV_AT_EPOCH":"130"},{"EPOCH":"2022-10-11T22:00:00.999936","RCS_SIZE":"LARGE","COUNTRY_CODE":"US","TLE_LINE2":"2 52999  53.2154 282.1081 0001422  60.6283  77.7818 15.08799263  1304","EPHEMERIS_TYPE":"0","INCLINATION":"53.2154","OBJECT_NAME":"STARLINK-4217","RA_OF_ASC_NODE":"282.1081","BSTAR":"0.00351390000000","PERIOD":"95.440","REF_FRAME":"TEME","CENTER_NAME":"EARTH","CLASSIFICATION_TYPE":"U","ARG_OF_PERICENTER":"60.6283","ELEMENT_SET_NO":"999","NORAD_CAT_ID":"52999","OBJECT_TYPE":"PAYLOAD","MEAN_ANOMALY":"77.7818","OBJECT_ID":"2022-076P","MEAN_MOTION":"15.08799263","REV_AT_EPOCH":"130","ECCENTRICITY":"0.00014220","SITE":"AFETR","FILE":"3604484","LAUNCH_DATE":"2022-07-07","PERIAPSIS":"538.886","APOAPSIS":"540.854","MEAN_ELEMENT_THEORY":"SGP4","SEMIMAJOR_AXIS":"6918.005","MEAN_MOTION_DDOT":"0.0000000000000","TIME_SYSTEM":"UTC","MEAN_MOTION_DOT":"0.00056018","GP_ID":"214825031","TLE_LINE1":"1 52999U 22076P   22284.91667824  .00056018  00000-0  35139-2 0  9995","DECAY_DATE":null},{"FILE":"3604484","PERIAPSIS":"538.225","LAUNCH_DATE":"2022-07-07","APOAPSIS":"541.296","MEAN_MOTION":"15.08835043","OBJECT_ID":"2022-076Q","REV_AT_EPOCH":"130","ECCENTRICITY":"0.00022200","SITE":"AFETR","MEAN_MOTION_DDOT":"0.0000000000000","MEAN_ELEMENT_THEORY":"SGP4","SEMIMAJOR_AXIS":"6917.896","GP_ID":"214825106","TLE_LINE1":"1 53000U 22076Q   22284.91667824  .00002422  00000-0  17027-3 0  9996","DECAY_DATE":null,"TIME_SYSTEM":"UTC","MEAN_MOTION_DOT":"0.00002422","EPOCH":"2022-10-11T22:00:00.999936","RCS_SIZE":"LARGE","OBJECT_NAME":"STARLINK-4194","RA_OF_ASC_NODE":"282.1162","BSTAR":"0.00017027000000","PERIOD":"95.438","COUNTRY_CODE":"US","EPHEMERIS_TYPE":"0","TLE_LINE2":"2 53000  53.2173 282.1162 0002220  36.0178  22.3932 15.08835043  1306","INCLINATION":"53.2173","ARG_OF_PERICENTER":"36.0178","ELEMENT_SET_NO":"999","NORAD_CAT_ID":"53000","CENTER_NAME":"EARTH","REF_FRAME":"TEME","CLASSIFICATION_TYPE":"U","MEAN_ANOMALY":"22.3932","OBJECT_TYPE":"PAYLOAD"},{"OBJECT_TYPE":"PAYLOAD","MEAN_ANOMALY":"88.4958","REF_FRAME":"TEME","CENTER_NAME":"EARTH","CLASSIFICATION_TYPE":"U","ELEMENT_SET_NO":"999","NORAD_CAT_ID":"53001","ARG_OF_PERICENTER":"69.9143","TLE_LINE2":"2 53001  53.2174 282.1163 0001575  69.9143  88.4958 15.08837576  1302","EPHEMERIS_TYPE":"0","INCLINATION":"53.2174","COUNTRY_CODE":"US","BSTAR":"-0.00013842000000","PERIOD":"95.438","OBJECT_NAME":"STARLINK-4190","RA_OF_ASC_NODE":"282.1163","RCS_SIZE":"LARGE","EPOCH":"2022-10-11T22:00:00.999936","TIME_SYSTEM":"UTC","MEAN_MOTION_DOT":"-0.00002490","DECAY_DATE":null,"TLE_LINE1":"1 53001U 22076R   22284.91667824 -.00002490  00000-0 -13842-3 0  9995","GP_ID":"214824861","SEMIMAJOR_AXIS":"6917.888","MEAN_ELEMENT_THEORY":"SGP4","MEAN_MOTION_DDOT":"0.0000000000000","ECCENTRICITY":"0.00015750","SITE":"AFETR","MEAN_MOTION":"15.08837576","OBJECT_ID":"2022-076R","REV_AT_EPOCH":"130","PERIAPSIS":"538.663","LAUNCH_DATE":"2022-07-07","APOAPSIS":"540.842","FILE":"3604484"},{"COUNTRY_CODE":"US","TLE_LINE2":"2 53002  53.2160 282.1250 0002057  40.6862  37.7262 15.08794391  1307","EPHEMERIS_TYPE":"0","INCLINATION":"53.2160","OBJECT_NAME":"STARLINK-4121","RA_OF_ASC_NODE":"282.1250","BSTAR":"0.00373700000000","PERIOD":"95.440","EPOCH":"2022-10-11T22:00:00.999936","RCS_SIZE":"LARGE","OBJECT_TYPE":"PAYLOAD","MEAN_ANOMALY":"37.7262","REF_FRAME":"TEME","CENTER_NAME":"EARTH","CLASSIFICATION_TYPE":"U","ARG_OF_PERICENTER":"40.6862","ELEMENT_SET_NO":"999","NORAD_CAT_ID":"53002","MEAN_MOTION":"15.08794391","OBJECT_ID":"2022-076S","REV_AT_EPOCH":"130","ECCENTRICITY":"0.00020570","SITE":"AFETR","FILE":"3604484","LAUNCH_DATE":"2022-07-07","APOAPSIS":"541.308","PERIAPSIS":"538.462","MEAN_MOTION_DOT":"0.00059616","TIME_SYSTEM":"UTC","TLE_LINE1":"1 53002U 22076S   22284.91667824  .00059616  00000-0  37370-2 0  9997","GP_ID":"214825620","DECAY_DATE":null,"MEAN_ELEMENT_THEORY":"SGP4","SEMIMAJOR_AXIS":"6918.020","MEAN_MOTION_DDOT":"0.0000000000000"},{"DECAY_DATE":null,"GP_ID":"214787163","TLE_LINE1":"1 53003U 22076T   22284.91667824  .00065644  00000-0  41086-2 0  9995","TIME_SYSTEM":"UTC","MEAN_MOTION_DOT":"0.00065644","MEAN_MOTION_DDOT":"0.0000000000000","SEMIMAJOR_AXIS":"6917.992","MEAN_ELEMENT_THEORY":"SGP4","PERIAPSIS":"538.938","LAUNCH_DATE":"2022-07-07","APOAPSIS":"540.776","FILE":"3603816","SITE":"AFETR","ECCENTRICITY":"0.00013280","OBJECT_ID":"2022-076T","MEAN_MOTION":"15.08803461","REV_AT_EPOCH":"1540","MEAN_ANOMALY":"135.5888","OBJECT_TYPE":"PAYLOAD","NORAD_CAT_ID":"53003","ELEMENT_SET_NO":"999","ARG_OF_PERICENTER":"62.7708","CLASSIFICATION_TYPE":"U","CENTER_NAME":"EARTH","REF_FRAME":"TEME","PERIOD":"95.440","BSTAR":"0.00410860000000","RA_OF_ASC_NODE":"282.1051","OBJECT_NAME":"STARLINK-4255","INCLINATION":"53.2174","TLE_LINE2":"2 53003  53.2174 282.1051 0001328  62.7708 135.5888 15.08803461 15402","EPHEMERIS_TYPE":"0","COUNTRY_CODE":"US","RCS_SIZE":"LARGE","EPOCH":"2022-10-11T22:00:00.999936"},{"MEAN_MOTION_DDOT":"0.0000000000000","MEAN_ELEMENT_THEORY":"SGP4","SEMIMAJOR_AXIS":"6917.988","TLE_LINE1":"1 53004U 22076U   22284.91667824  .00057855  00000-0  36271-2 0  9991","GP_ID":"214824690","DECAY_DATE":null,"TIME_SYSTEM":"UTC","MEAN_MOTION_DOT":"0.00057855","FILE":"3604484","LAUNCH_DATE":"2022-07-07","APOAPSIS":"540.849","PERIAPSIS":"538.858","OBJECT_ID":"2022-076U","REV_AT_EPOCH":"130","MEAN_MOTION":"15.08804778","SITE":"AFETR","ECCENTRICITY":"0.00014390","ARG_OF_PERICENTER":"64.2182","NORAD_CAT_ID":"53004","ELEMENT_SET_NO":"999","CLASSIFICATION_TYPE":"U","REF_FRAME":"TEME","CENTER_NAME":"EARTH","MEAN_ANOMALY":"54.1932","OBJECT_TYPE":"PAYLOAD","EPOCH":"2022-10-11T22:00:00.999936","RCS_SIZE":"LARGE","RA_OF_ASC_NODE":"282.1139","OBJECT_NAME":"STARLINK-4253","PERIOD":"95.440","BSTAR":"0.00362710000000","COUNTRY_CODE":"US","INCLINATION":"53.2155","TLE_LINE2":"2 53004  53.2155 282.1139 0001439  64.2182  54.1932 15.08804778  1307","EPHEMERIS_TYPE":"0"},{"TLE_LINE1":"1 53005U 22076V   22284.91667824 -.00002887  00000-0 -16340-3 0  9995","GP_ID":"214825277","DECAY_DATE":null,"MEAN_MOTION_DOT":"-0.00002887","TIME_SYSTEM":"UTC","MEAN_MOTION_DDOT":"0.0000000000000","MEAN_ELEMENT_THEORY":"SGP4","SEMIMAJOR_AXIS":"6917.888","FILE":"3604484","LAUNCH_DATE":"2022-07-07","APOAPSIS":"540.754","PERIAPSIS":"538.751","MEAN_MOTION":"15.08837621","OBJECT_ID":"2022-076V","REV_AT_EPOCH":"130","SITE":"AFETR","ECCENTRICITY":"0.00014480","MEAN_ANOMALY":"146.1253","OBJECT_TYPE":"PAYLOAD","ARG_OF_PERICENTER":"72.2849","NORAD_CAT_ID":"53005","ELEMENT_SET_NO":"999","CLASSIFICATION_TYPE":"U","CENTER_NAME":"EARTH","REF_FRAME":"TEME","RA_OF_ASC_NODE":"282.1162","OBJECT_NAME":"STARLINK-4288","PERIOD":"95.438","BSTAR":"-0.00016340000000","COUNTRY_CODE":"US","INCLINATION":"53.2172","EPHEMERIS_TYPE":"0","TLE_LINE2":"2 53005  53.2172 282.1162 0001448  72.2849 146.1253 15.08837621  1303","EPOCH":"2022-10-11T22:00:00.999936","RCS_SIZE":"LARGE"},{"EPOCH":"2022-10-11T22:00:00.999936","RCS_SIZE":"LARGE","OBJECT_NAME":"STARLINK-4290","RA_OF_ASC_NODE":"282.1163","BSTAR":"-0.00017068000000","PERIOD":"95.438","COUNTRY_CODE":"US","EPHEMERIS_TYPE":"0","TLE_LINE2":"2 53006  53.2173 282.1163 0001603  56.1847 122.2253 15.08837791  1301","INCLINATION":"53.2173","ARG_OF_PERICENTER":"56.1847","ELEMENT_SET_NO":"999","NORAD_CAT_ID":"53006","CENTER_NAME":"EARTH","REF_FRAME":"TEME","CLASSIFICATION_TYPE":"U","MEAN_ANOMALY":"122.2253","OBJECT_TYPE":"PAYLOAD","FILE":"3604484","APOAPSIS":"540.861","LAUNCH_DATE":"2022-07-07","PERIAPSIS":"538.643","MEAN_MOTION":"15.08837791","OBJECT_ID":"2022-076W","REV_AT_EPOCH":"130","ECCENTRICITY":"0.00016030","SITE":"AFETR","MEAN_MOTION_DDOT":"0.0000000000000","MEAN_ELEMENT_THEORY":"SGP4","SEMIMAJOR_AXIS":"6917.887","TLE_LINE1":"1 53006U 22076W   22284.91667824 -.00003003  00000-0 -17068-3 0  9995","GP_ID":"214825885","DECAY_DATE":null,"MEAN_MOTION_DOT":"-0.00003003","TIME_SYSTEM":"UTC"}];
